OBJECT_NAME,OBJECT_ID,EPOCH,MEAN_MOTION,ECCENTRICITY,INCLINATION,RA_OF_ASC_NODE,ARG_OF_PERICENTER,MEAN_ANOMALY,EPHEMERIS_TYPE,CLASSIFICATION_TYPE,NORAD_CAT_ID,ELEMENT_SET_NO,REV_AT_EPOCH,BSTAR,MEAN_MOTION_DOT,MEAN_MOTION_DDOT
2026-134A,2026-134A,2026-07-03T16:43:22.618848,15.09365313,.00151405,97.6997,254.8646,210.5246,149.5103,0,U,69538,999,280,.35204325E-3,.5571E-4,0
2026-134B,2026-134B,2026-07-03T16:40:36.590880,15.09526012,.00152516,97.6973,254.8614,213.2381,146.7891,0,U,69539,999,279,.46916369E-3,.7481E-4,0
2026-134C,2026-134C,2026-07-03T16:40:03.273312,15.09558000,.00147169,97.6978,254.8631,214.4306,145.5970,0,U,69540,999,279,.4711137E-3,.7518E-4,0
2026-134D,2026-134D,2026-07-03T16:39:02.598048,15.09611177,.00157274,97.7019,254.8732,214.0642,145.9578,0,U,69541,999,279,.36542234E-3,.5826E-4,0
2026-134E,2026-134E,2026-07-03T16:38:39.202656,15.09637171,.00155062,97.7036,254.8776,214.9796,145.0415,0,U,69542,999,279,.47541809E-3,.7606E-4,0
2026-134F,2026-134F,2026-07-03T16:37:50.714976,15.09678887,.00147809,97.6990,254.8677,216.5732,143.4489,0,U,69543,999,279,.36995307E-3,.5908E-4,0
2026-134G,2026-134G,2026-07-03T16:36:21.889728,15.09767441,.00152803,97.7034,254.8788,217.5782,142.4381,0,U,69544,999,279,.48853243E-3,.7845E-4,0
2026-134H,2026-134H,2026-07-03T16:35:12.183936,15.09833955,.00151065,97.7018,254.8767,218.9875,141.0266,0,U,69545,999,278,.49530248E-3,.7969E-4,0
STARLINK-37880,2026-135A,2026-07-02T12:50:32.578656,15.80965642,.0001578,97.2838,211.4192,68.7100,291.4336,0,U,69546,999,268,.16282E-2,.325897E-2,0
STARLINK-37881,2026-135B,2026-07-02T12:49:43.304736,15.80898647,.0001865,97.2826,211.4193,90.8586,269.2896,0,U,69547,999,268,.13057E-2,.258491E-2,0
STARLINK-37265,2026-135C,2026-07-02T12:48:45.274176,15.80951560,.0001465,97.2827,211.4197,78.8461,281.2972,0,U,69548,999,268,.17926E-2,.359996E-2,0
STARLINK-37871,2026-135D,2026-07-02T12:47:24.624960,15.80899987,.000185,97.2828,211.4214,74.2982,285.8490,0,U,69549,999,268,.13952E-2,.276814E-2,0
STARLINK-37865,2026-135E,2026-07-02T12:45:19.719936,15.80979369,.0000824,97.2819,211.4228,73.1608,286.9751,0,U,69550,999,268,.19722E-2,.398376E-2,0
STARLINK-37862,2026-135F,2026-07-02T12:41:17.807712,15.80978480,.0001927,97.2830,211.4263,45.6993,314.4433,0,U,69551,999,268,.18602E-2,.374685E-2,0
STARLINK-37861,2026-135G,2026-07-02T20:14:19.657248,15.81104680,.00013738,97.2817,211.7645,42.3955,317.7419,0,U,69552,999,273,.19299816E-2,.391766E-2,0
STARLINK-37859,2026-135H,2026-07-02T17:10:15.953088,15.80868169,.00015756,97.2829,211.6328,82.1113,278.0334,0,U,69553,999,271,.1233172E-2,.243356E-2,0
STARLINK-37860,2026-135J,2026-07-02T12:37:12.429120,15.80921425,.0001193,97.2829,211.4312,77.7213,282.4189,0,U,69554,999,268,.12727E-2,.252019E-2,0
STARLINK-37858,2026-135K,2026-07-03T10:00:08.000064,15.80828570,.000131,97.2828,212.3785,113.8501,284.9626,0,U,69555,999,392,-.17371747E-3,-.33309E-3,0
STARLINK-37927,2026-135L,2026-07-02T12:33:51.028992,15.80972690,.0001345,97.2834,211.4338,66.3582,293.7827,0,U,69556,999,268,.16906E-2,.339015E-2,0
STARLINK-37929,2026-135M,2026-07-02T12:32:38.655168,15.80978061,.0000973,97.2836,211.4350,23.0790,337.0522,0,U,69557,999,268,.17176E-2,.344741E-2,0
STARLINK-37954,2026-135N,2026-07-02T12:30:53.623872,15.80984719,.000165,97.2836,211.4375,40.0279,320.1111,0,U,69558,999,268,.21079E-2,.427322E-2,0
STARLINK-37958,2026-135P,2026-07-03T10:00:08.000064,15.80760533,.00014243,97.2830,212.3915,103.5674,322.3275,0,U,69559,999,392,.67654332E-3,.131081E-2,0
STARLINK-37950,2026-135Q,2026-07-01T19:44:25.855872,15.81006568,.0001501,97.2846,210.7044,31.1885,328.9472,0,U,69560,999,257,.26564893E-2,.546659E-2,0
STARLINK-37952,2026-135R,2026-07-02T12:25:06.974112,15.80897924,.0000754,97.2829,211.4426,100.1511,259.9842,0,U,69561,999,268,.13667E-2,.270964E-2,0
STARLINK-37935,2026-135S,2026-07-02T12:24:00.266400,15.80955163,.0001181,97.2833,211.4430,37.3627,322.7723,0,U,69562,999,268,.15029E-2,.29975E-2,0
STARLINK-37936,2026-135T,2026-07-02T19:49:39.578592,15.80963527,.00006928,97.2838,211.7884,44.1550,315.9774,0,U,69563,999,273,.18591109E-2,.374205E-2,0
STARLINK-37932,2026-135U,2026-07-02T19:49:08.827104,15.80907657,.00008658,97.2840,211.7888,84.7476,275.3891,0,U,69564,999,273,.10831761E-2,.213383E-2,0
STARLINK-37916,2026-135V,2026-07-02T12:12:35.722656,15.80952914,.0000904,97.2831,211.4545,45.6269,314.5074,0,U,69565,999,268,.14326E-2,.28521E-2,0
STARLINK-37909,2026-135W,2026-07-02T19:39:17.182368,15.80921834,.00035544,97.2818,211.7990,74.1739,285.9921,0,U,69566,999,273,.17829934E-2,.357519E-2,0
STARLINK-37934,2026-135X,2026-07-02T19:43:53.937120,15.80930669,.00034739,97.2837,211.7939,72.3330,287.8317,0,U,69567,999,273,.19137335E-2,.385122E-2,0
