2026-134A               
1 69538U 26134A   26184.69678957  .00005571  00000+0  35204-3 0  9999
2 69538  97.6997 254.8646 0015140 210.5246 149.5103 15.09365313  2805
2026-134B               
1 69539U 26134B   26184.69486795  .00007481  00000+0  46916-3 0  9991
2 69539  97.6973 254.8614 0015251 213.2381 146.7891 15.09526012  2794
2026-134C               
1 69540U 26134C   26184.69448233  .00007518  00000+0  47111-3 0  9997
2 69540  97.6978 254.8631 0014716 214.4306 145.5970 15.09558000  2792
2026-134D               
1 69541U 26134D   26184.69378007  .00005826  00000+0  36542-3 0  9995
2 69541  97.7019 254.8732 0015727 214.0642 145.9578 15.09611177  2797
2026-134E               
1 69542U 26134E   26184.69350929  .00007606  00000+0  47542-3 0  9999
2 69542  97.7036 254.8776 0015506 214.9796 145.0415 15.09637171  2792
2026-134F               
1 69543U 26134F   26184.69294809  .00005908  00000+0  36995-3 0  9997
2 69543  97.6990 254.8677 0014780 216.5732 143.4489 15.09678887  2794
2026-134G               
1 69544U 26134G   26184.69192002  .00007845  00000+0  48853-3 0  9998
2 69544  97.7034 254.8788 0015280 217.5782 142.4381 15.09767441  2795
2026-134H               
1 69545U 26134H   26184.69111324  .00007969  00000+0  49530-3 0  9997
2 69545  97.7018 254.8767 0015106 218.9875 141.0266 15.09833955  2780
STARLINK-37880          
1 69546U 26135A   26183.53509929  .00325897  00000+0  16282-2 0  9993
2 69546  97.2838 211.4192 0001578  68.7100 291.4336 15.80965642  2682
STARLINK-37881          
1 69547U 26135B   26183.53452899  .00258491  00000+0  13057-2 0  9999
2 69547  97.2826 211.4193 0001865  90.8586 269.2896 15.80898647  2688
STARLINK-37265          
1 69548U 26135C   26183.53385734  .00359996  00000+0  17926-2 0  9994
2 69548  97.2827 211.4197 0001465  78.8461 281.2972 15.80951560  2681
STARLINK-37871          
1 69549U 26135D   26183.53292390  .00276814  00000+0  13952-2 0  9992
2 69549  97.2828 211.4214 0001850  74.2982 285.8490 15.80899987  2688
STARLINK-37865          
1 69550U 26135E   26183.53147824  .00398376  00000+0  19722-2 0  9994
2 69550  97.2819 211.4228 0000824  73.1608 286.9751 15.80979369  2683
STARLINK-37862          
1 69551U 26135F   26183.52867833  .00374685  00000+0  18602-2 0  9996
2 69551  97.2830 211.4263 0001927  45.6993 314.4433 15.80978480  2689
STARLINK-37861          
1 69552U 26135G   26183.84328307  .00391766  00000+0  19300-2 0  9995
2 69552  97.2817 211.7645 0001373  42.3955 317.7419 15.81104680  2739
STARLINK-37859          
1 69553U 26135H   26183.71546242  .00243356  00000+0  12332-2 0  9991
2 69553  97.2829 211.6328 0001575  82.1113 278.0334 15.80868169  2713
STARLINK-37860          
1 69554U 26135J   26183.52583830  .00252019  00000+0  12727-2 0  9999
2 69554  97.2829 211.4312 0001193  77.7213 282.4189 15.80921425  2680
STARLINK-37858          
1 69555U 26135K   26184.41675926 -.00033309  00000+0 -17372-3 0  9990
2 69555  97.2828 212.3785 0001310 113.8501 284.9626 15.80828570  3925
STARLINK-37927          
1 69556U 26135L   26183.52350728  .00339015  00000+0  16906-2 0  9994
2 69556  97.2834 211.4338 0001345  66.3582 293.7827 15.80972690  2682
STARLINK-37929          
1 69557U 26135M   26183.52266962  .00344741  00000+0  17176-2 0  9993
2 69557  97.2836 211.4350 0000973  23.0790 337.0522 15.80978061  2688
STARLINK-37954          
1 69558U 26135N   26183.52145398  .00427322  00000+0  21079-2 0  9997
2 69558  97.2836 211.4375 0001650  40.0279 320.1111 15.80984719  2684
STARLINK-37958          
1 69559U 26135P   26184.41675926  .00131081  00000+0  67654-3 0  9996
2 69559  97.2830 212.3915 0001424 103.5674 322.3275 15.80760533  3921
STARLINK-37950          
1 69560U 26135Q   26182.82252148  .00546659  00000+0  26565-2 0  9994
2 69560  97.2846 210.7044 0001501  31.1885 328.9472 15.81006568  2574
STARLINK-37952          
1 69561U 26135R   26183.51744183  .00270964  00000+0  13667-2 0  9999
2 69561  97.2829 211.4426 0000754 100.1511 259.9842 15.80897924  2689
STARLINK-37935          
1 69562U 26135S   26183.51666975  .00299750  00000+0  15029-2 0  9990
2 69562  97.2833 211.4430 0001181  37.3627 322.7723 15.80955163  2681
STARLINK-37936          
1 69563U 26135T   26183.82615253  .00374205  00000+0  18591-2 0  9994
2 69563  97.2838 211.7884 0000692  44.1550 315.9774 15.80963527  2739
STARLINK-37932          
1 69564U 26135U   26183.82579661  .00213383  00000+0  10832-2 0  9996
2 69564  97.2840 211.7888 0000865  84.7476 275.3891 15.80907657  2737
STARLINK-37916          
1 69565U 26135V   26183.50874679  .00285210  00000+0  14326-2 0  9999
2 69565  97.2831 211.4545 0000904  45.6269 314.5074 15.80952914  2684
STARLINK-37909          
1 69566U 26135W   26183.81894887  .00357519  00000+0  17830-2 0  9992
2 69566  97.2818 211.7990 0003554  74.1739 285.9921 15.80921834  2735
STARLINK-37934          
1 69567U 26135X   26183.82215205  .00385122  00000+0  19137-2 0  9998
2 69567  97.2837 211.7939 0003473  72.3330 287.8317 15.80930669  2733
